YOTSUBA-KULOVER         
1 65941U 98067XN  26061.30020035  .00183431  00000+0  10711-2 0  9994
2 65941  51.6217  95.5276 0006065  24.4907 335.6381 15.77286449 22338
BOTAN                   
1 65942U 98067XP  26061.44192936  .02808540  11845-4  15065-2 0  9998
2 65942  51.6071  87.3174 0005071  45.1501 314.9928 16.19120033 22452
E-KAGAKU-1              
1 65943U 98067XQ  26061.36663800  .00180153  00000+0  10628-2 0  9990
2 65943  51.6236  95.2365 0006285  32.6791 327.4598 15.77064587 22340
HRC MONOBLOCK CAMERA    
1 66052U 98067XR  26061.40570658  .00053624  00000+0  62049-3 0  9992
2 66052  51.6272 102.2710 0003324  60.8077 299.3249 15.61308322 21256
HTV-X1                  
1 66174U 25241A   26061.93054996  .00009325  00000+0  18075-3 0  9990
2 66174  51.6319 105.7724 0008215 150.8374 209.3075 15.48408287554479
SZ-21 MODULE            
1 66515U 25246C   26061.55898934  .00039531  00000+0  34908-3 0  9995
2 66515  41.4734 247.2373 0001469 286.7563  73.3117 15.67907744 16956
SHENZHOU-22             
1 66645U 25272A   26061.80363536  .00017409  00000+0  21017-3 0  9998
2 66645  41.4651 250.0496 0006616 230.1207 129.9050 15.60315912267521
SOYUZ-MS 28             
1 66664U 25275A   26061.93054996  .00009325  00000+0  18075-3 0  9991
2 66664  51.6319 105.7724 0008215 150.8374 209.3075 15.48408287554529
DUPLEX                  
1 66906U 98067XS  26061.52117925  .00034684  00000+0  49960-3 0  9999
2 66906  51.6288 105.2931 0001992  86.7096 273.4123 15.55686663 14016
ISS OBJECT XT           
1 66907U 98067XT  26061.38090324  .00143858  00000+0  13163-2 0  9996
2 66907  51.6255 102.8461 0004459  34.6352 325.4933 15.66818692 14030
ISS OBJECT XU           
1 66908U 98067XU  26061.37957648  .00140929  00000+0  12855-2 0  9990
2 66908  51.6250 102.8343 0004597  37.1360 322.9953 15.66905341 14037
SILVERSAT               
1 66909U 98067XV  26061.52021951  .00171520  00000+0  14132-2 0  9998
2 66909  51.6251 101.5236 0005331  34.6258 325.5085 15.69284404 14062
